{
  "version": 0.6,
  "generator": "Overpass API 0.7.62.8 e802775f",
  "osm3s": {
    "timestamp_osm_base": "2025-08-23T20:08:45Z",
    "timestamp_areas_base": "2025-08-23T15:59:04Z",
    "copyright": "The data included in this document is from www.openstreetmap.org. The data is made available under ODbL."
  },
  "elements": [

{
  "type": "relation",
  "id": 2410520,
  "bounds": {
    "minlat": 37.4564808,
    "minlon": 127.0083762,
    "maxlat": 37.5399807,
    "maxlon": 127.1227254
  },
  "tags": {
    "admin_level": "6",
    "boundary": "administrative",
    "name": "강남구",
    "name:en": "Gangnam-gu",
    "name:ja": "江南区",
    "name:ko": "강남구",
    "name:ko-Hani": "江南區",
    "name:zh": "江南區",
    "name:zh-Hans": "江南区",
    "name:zh-Hant": "江南區",
    "ref": "23",
    "type": "boundary",
    "wikidata": "Q20398",
    "wikipedia": "ko:강남구"
  }
},
{
  "type": "relation",
  "id": 2414774,
  "bounds": {
    "minlat": 37.4754314,
    "minlon": 126.9031479,
    "maxlat": 37.5196678,
    "maxlon": 126.9852340
  },
  "tags": {
    "admin_level": "6",
    "boundary": "administrative",
    "name": "동작구",
    "name:en": "Dongjak-gu",
    "name:ja": "銅雀区",
    "name:ko": "동작구",
    "name:ko-Hani": "銅雀區",
    "name:zh": "銅雀區",
    "name:zh-Hans": "铜雀区",
    "name:zh-Hant": "銅雀區",
    "ref": "20",
    "type": "boundary",
    "wikidata": "Q50385",
    "wikipedia": "ko:동작구"
  }
},
{
  "type": "relation",
  "id": 2414775,
  "bounds": {
    "minlat": 37.5264842,
    "minlon": 126.7644328,
    "maxlat": 37.6050356,
    "maxlon": 126.8807919
  },
  "tags": {
    "admin_level": "6",
    "boundary": "administrative",
    "name": "강서구",
    "name:en": "Gangseo-gu",
    "name:ja": "江西区",
    "name:ko": "강서구",
    "name:ko-Hani": "江西區",
    "name:zh": "江西區",
    "name:zh-Hans": "江西区",
    "name:zh-Hant": "江西區",
    "ref": "16",
    "type": "boundary",
    "wikidata": "Q50192",
    "wikipedia": "ko:강서구 (서울특별시)"
  }
},
{
  "type": "relation",
  "id": 2414776,
  "bounds": {
    "minlat": 37.4336201,
    "minlon": 126.8718436,
    "maxlat": 37.4862945,
    "maxlon": 126.9290862
  },
  "tags": {
    "admin_level": "6",
    "boundary": "administrative",
    "name": "금천구",
    "name:en": "Geumcheon-gu",
    "name:ja": "衿川区",
    "name:ko": "금천구",
    "name:ko-Hani": "衿川區",
    "name:zh": "衿川區",
    "name:zh-Hans": "衿川区",
    "name:zh-Hant": "衿川區",
    "ref": "18",
    "type": "boundary",
    "wikidata": "Q50359",
    "wikipedia": "ko:금천구"
  }
},
{
  "type": "relation",
  "id": 2414777,
  "bounds": {
    "minlat": 37.4731126,
    "minlon": 126.8130271,
    "maxlat": 37.5177752,
    "maxlon": 126.9031479
  },
  "tags": {
    "admin_level": "6",
    "boundary": "administrative",
    "name": "구로구",
    "name:en": "Guro-gu",
    "name:ja": "九老区",
    "name:ko": "구로구",
    "name:ko-Hani": "九老區",
    "name:zh": "九老區",
    "name:zh-Hans": "九老区",
    "name:zh-Hant": "九老區",
    "ref": "17",
    "type": "boundary",
    "wikidata": "Q50356",
    "wikipedia": "ko:구로구"
  }
},
{
  "type": "relation",
  "id": 2414778,
  "bounds": {
    "minlat": 37.4353751,
    "minlon": 126.8989470,
    "maxlat": 37.4950380,
    "maxlon": 126.9885430
  },
  "tags": {
    "admin_level": "6",
    "boundary": "administrative",
    "name": "관악구",
    "name:en": "Gwanak-gu",
    "name:ja": "冠岳区",
    "name:ko": "관악구",
    "name:ko-Hani": "冠岳區",
    "name:zh": "冠岳區",
    "name:zh-Hans": "冠岳区",
    "name:zh-Hant": "冠岳區",
    "ref": "21",
    "type": "boundary",
    "wikidata": "Q50353",
    "wikipedia": "ko:관악구"
  }
},
{
  "type": "relation",
  "id": 2414779,
  "bounds": {
    "minlat": 37.4285424,
    "minlon": 126.9805485,
    "maxlat": 37.5258834,
    "maxlon": 127.0964539
  },
  "tags": {
    "admin_level": "6",
    "boundary": "administrative",
    "name": "서초구",
    "name:en": "Seocho-gu",
    "name:ja": "瑞草区",
    "name:ko": "서초구",
    "name:ko-Hani": "瑞草區",
    "name:zh": "瑞草區",
    "name:zh-Hans": "瑞草区",
    "name:zh-Hant": "瑞草區",
    "ref": "22",
    "type": "boundary",
    "wikidata": "Q20395",
    "wikipedia": "ko:서초구"
  }
},
{
  "type": "relation",
  "id": 2414780,
  "bounds": {
    "minlat": 37.5028694,
    "minlon": 126.8215906,
    "maxlat": 37.5512401,
    "maxlon": 126.8906843
  },
  "tags": {
    "admin_level": "6",
    "boundary": "administrative",
    "name": "양천구",
    "name:en": "Yangcheon-gu",
    "name:ja": "陽川区",
    "name:ko": "양천구",
    "name:ko-Hani": "陽川區",
    "name:zh": "陽川區",
    "name:zh-Hans": "阳川区",
    "name:zh-Hant": "陽川區",
    "ref": "15",
    "type": "boundary",
    "wikidata": "Q50420",
    "wikipedia": "ko:양천구"
  }
},
{
  "type": "relation",
  "id": 2414781,
  "bounds": {
    "minlat": 37.4849734,
    "minlon": 126.8780242,
    "maxlat": 37.5562521,
    "maxlon": 126.9499303
  },
  "tags": {
    "admin_level": "6",
    "boundary": "administrative",
    "name": "영등포구",
    "name:en": "Yeongdeungpo-gu",
    "name:ja": "永登浦区",
    "name:ko": "영등포구",
    "name:ko-Hani": "永登浦區",
    "name:zh": "永登浦區",
    "name:zh-Hans": "永登浦区",
    "name:zh-Hant": "永登浦區",
    "ref": "19",
    "type": "boundary",
    "wikidata": "Q50190",
    "wikipedia": "ko:영등포구"
  }
},
{
  "type": "relation",
  "id": 2419940,
  "bounds": {
    "minlat": 37.6312009,
    "minlon": 127.0081028,
    "maxlat": 37.7014794,
    "maxlon": 127.0559124
  },
  "tags": {
    "admin_level": "6",
    "boundary": "administrative",
    "name": "도봉구",
    "name:en": "Dobong-gu",
    "name:ja": "道峰区",
    "name:ko": "도봉구",
    "name:ko-Hani": "道峰區",
    "name:zh": "道峰區",
    "name:zh-Hans": "道峰区",
    "name:zh-Hant": "道峰區",
    "ref": "10",
    "type": "boundary",
    "wikidata": "Q50374",
    "wikipedia": "ko:도봉구"
  }
},
{
  "type": "relation",
  "id": 2419941,
  "bounds": {
    "minlat": 37.5600183,
    "minlon": 127.0231792,
    "maxlat": 37.6068288,
    "maxlon": 127.0785120
  },
  "tags": {
    "admin_level": "6",
    "boundary": "administrative",
    "name": "동대문구",
    "name:en": "Dongdaemun-gu",
    "name:ja": "東大門区",
    "name:ko": "동대문구",
    "name:ko-Hani": "東大門區",
    "name:zh": "東大門區",
    "name:zh-Hans": "东大门区",
    "name:zh-Hant": "東大門區",
    "ref": "06",
    "type": "boundary",
    "wikidata": "Q50382",
    "wikipedia": "ko:동대문구"
  }
},
{
  "type": "relation",
  "id": 2419942,
  "bounds": {
    "minlat": 37.5760010,
    "minlon": 126.8820584,
    "maxlat": 37.6592070,
    "maxlon": 126.9633811
  },
  "tags": {
    "admin_level": "6",
    "boundary": "administrative",
    "name": "은평구",
    "name:en": "Eunpyeong-gu",
    "name:ja": "恩平区",
    "name:ko": "은평구",
    "name:ko-Hani": "恩平區",
    "name:zh": "恩平區",
    "name:zh-Hans": "恩平区",
    "name:zh-Hant": "恩平區",
    "ref": "12",
    "type": "boundary",
    "wikidata": "Q50432",
    "wikipedia": "ko:은평구"
  }
},
{
  "type": "relation",
  "id": 2419943,
  "bounds": {
    "minlat": 37.6091181,
    "minlon": 126.9796299,
    "maxlat": 37.6854213,
    "maxlon": 127.0499886
  },
  "tags": {
    "admin_level": "6",
    "boundary": "administrative",
    "name": "강북구",
    "name:en": "Gangbuk-gu",
    "name:ja": "江北区",
    "name:ko": "강북구",
    "name:ko-Hani": "江北區",
    "name:zh": "江北區",
    "name:zh-Hans": "江北区",
    "name:zh-Hant": "江北區",
    "ref": "09",
    "type": "boundary",
    "wikidata": "Q50349",
    "wikipedia": "ko:강북구"
  }
},
{
  "type": "relation",
  "id": 2419944,
  "bounds": {
    "minlat": 37.5167892,
    "minlon": 127.1090669,
    "maxlat": 37.5812021,
    "maxlon": 127.1837702
  },
  "tags": {
    "admin_level": "6",
    "boundary": "administrative",
    "name": "강동구",
    "name:en": "Gangdong-gu",
    "name:ja": "江東区",
    "name:ko": "강동구",
    "name:ko-Hani": "江東區",
    "name:zh": "江東區",
    "name:zh-Hans": "江东区",
    "name:zh-Hant": "江東區",
    "ref": "25",
    "type": "boundary",
    "wikidata": "Q50348",
    "wikipedia": "ko:강동구"
  }
},
{
  "type": "relation",
  "id": 2419945,
  "bounds": {
    "minlat": 37.5227725,
    "minlon": 127.0572040,
    "maxlat": 37.5734267,
    "maxlon": 127.1151675
  },
  "tags": {
    "admin_level": "6",
    "boundary": "administrative",
    "name": "광진구",
    "name:en": "Gwangjin-gu",
    "name:ja": "広津区",
    "name:ko": "광진구",
    "name:ko-Hani": "廣津區",
    "name:zh": "廣津區",
    "name:zh-Hans": "广津区",
    "name:zh-Hant": "廣津區",
    "ref": "05",
    "type": "boundary",
    "wikidata": "Q50355",
    "wikipedia": "ko:광진구"
  }
},
{
  "type": "relation",
  "id": 2419946,
  "bounds": {
    "minlat": 37.5657959,
    "minlon": 126.9489043,
    "maxlat": 37.6323530,
    "maxlon": 127.0234190
  },
  "tags": {
    "admin_level": "6",
    "boundary": "administrative",
    "name": "종로구",
    "name:en": "Jongno-gu",
    "name:ja": "鍾路区",
    "name:ko": "종로구",
    "name:ko-Hani": "鍾路區",
    "name:zh": "鍾路區",
    "name:zh-Hans": "钟路区",
    "name:zh-Hant": "鍾路區",
    "ref": "01",
    "type": "boundary",
    "wikidata": "Q36929",
    "wikipedia": "ko:종로구"
  }
},
{
  "type": "relation",
  "id": 2419947,
  "bounds": {
    "minlat": 37.5438572,
    "minlon": 126.9615402,
    "maxlat": 37.5719426,
    "maxlon": 127.0267821
  },
  "tags": {
    "admin_level": "6",
    "boundary": "administrative",
    "name": "중구",
    "name:en": "Jung-gu",
    "name:ja": "中区",
    "name:ko": "중구",
    "name:ko-Hani": "中區",
    "name:zh": "中區",
    "name:zh-Hans": "中区",
    "name:zh-Hant": "中區",
    "ref": "02",
    "type": "boundary",
    "wikidata": "Q50441",
    "wikipedia": "ko:중구 (서울특별시)"
  }
},
{
  "type": "relation",
  "id": 2419948,
  "bounds": {
    "minlat": 37.5695500,
    "minlon": 127.0693771,
    "maxlat": 37.6210737,
    "maxlon": 127.1183601
  },
  "tags": {
    "admin_level": "6",
    "boundary": "administrative",
    "name": "중랑구",
    "name:en": "Jungnang-gu",
    "name:ja": "中浪区",
    "name:ko": "중랑구",
    "name:ko-Hani": "中浪區",
    "name:zh": "中浪區",
    "name:zh-Hans": "中浪区",
    "name:zh-Hant": "中浪區",
    "ref": "07",
    "type": "boundary",
    "wikidata": "Q50444",
    "wikipedia": "ko:중랑구"
  }
},
{
  "type": "relation",
  "id": 2419949,
  "bounds": {
    "minlat": 37.5337723,
    "minlon": 126.8536285,
    "maxlat": 37.5907944,
    "maxlon": 126.9638970
  },
  "tags": {
    "admin_level": "6",
    "boundary": "administrative",
    "name": "마포구",
    "name:en": "Mapo-gu",
    "name:ja": "麻浦区",
    "name:ko": "마포구",
    "name:ko-Hani": "麻浦區",
    "name:zh": "麻浦區",
    "name:zh-Hans": "麻浦区",
    "name:zh-Hant": "麻浦區",
    "ref": "14",
    "type": "boundary",
    "wikidata": "Q50388",
    "wikipedia": "ko:마포구"
  }
},
{
  "type": "relation",
  "id": 2419950,
  "bounds": {
    "minlat": 37.6143149,
    "minlon": 127.0417236,
    "maxlat": 37.6962169,
    "maxlon": 127.1124872
  },
  "tags": {
    "admin_level": "6",
    "boundary": "administrative",
    "name": "노원구",
    "name:en": "Nowon-gu",
    "name:ja": "蘆原区",
    "name:ko": "노원구",
    "name:ko-Hani": "蘆原區",
    "name:zh": "蘆原區",
    "name:zh-Hans": "芦原区",
    "name:zh-Hant": "蘆原區",
    "ref": "11",
    "type": "boundary",
    "wikidata": "Q50368",
    "wikipedia": "ko:노원구"
  }
},
{
  "type": "relation",
  "id": 2419951,
  "bounds": {
    "minlat": 37.5551024,
    "minlon": 126.9019475,
    "maxlat": 37.6107512,
    "maxlon": 126.9694716
  },
  "tags": {
    "admin_level": "6",
    "boundary": "administrative",
    "name": "서대문구",
    "name:en": "Seodaemun-gu",
    "name:ja": "西大門区",
    "name:ko": "서대문구",
    "name:ko-Hani": "西大門區",
    "name:zh": "西大門區",
    "name:zh-Hans": "西大门区",
    "name:zh-Hant": "西大門區",
    "ref": "13",
    "type": "boundary",
    "wikidata": "Q50408",
    "wikipedia": "ko:서대문구"
  }
},
{
  "type": "relation",
  "id": 2419952,
  "bounds": {
    "minlat": 37.5776152,
    "minlon": 126.9745270,
    "maxlat": 37.6365418,
    "maxlon": 127.0717735
  },
  "tags": {
    "admin_level": "6",
    "boundary": "administrative",
    "name": "성북구",
    "name:en": "Seongbuk-gu",
    "name:ja": "城北区",
    "name:ko": "성북구",
    "name:ko-Hani": "城北區",
    "name:zh": "城北區",
    "name:zh-Hans": "城北区",
    "name:zh-Hant": "城北區",
    "ref": "08",
    "type": "boundary",
    "wikidata": "Q50412",
    "wikipedia": "ko:성북구"
  }
},
{
  "type": "relation",
  "id": 2419953,
  "bounds": {
    "minlat": 37.5301151,
    "minlon": 127.0083020,
    "maxlat": 37.5730162,
    "maxlon": 127.0737610
  },
  "tags": {
    "admin_level": "6",
    "boundary": "administrative",
    "name": "성동구",
    "name:en": "Seongdong-gu",
    "name:ja": "城東区",
    "name:ko": "성동구",
    "name:ko-Hani": "城東區",
    "name:zh": "城東區",
    "name:zh-Hans": "城东区",
    "name:zh-Hant": "城東區",
    "ref": "04",
    "type": "boundary",
    "wikidata": "Q50411",
    "wikipedia": "ko:성동구"
  }
},
{
  "type": "relation",
  "id": 2419954,
  "bounds": {
    "minlat": 37.4669573,
    "minlon": 127.0665922,
    "maxlat": 37.5431713,
    "maxlon": 127.1615088
  },
  "tags": {
    "admin_level": "6",
    "boundary": "administrative",
    "name": "송파구",
    "name:en": "Songpa-gu",
    "name:ja": "松坡区",
    "name:ko": "송파구",
    "name:ko-Hani": "松坡區",
    "name:zh": "松坡區",
    "name:zh-Hans": "松坡区",
    "name:zh-Hant": "松坡區",
    "ref": "24",
    "type": "boundary",
    "wikidata": "Q50415",
    "wikipedia": "ko:송파구"
  }
},
{
  "type": "relation",
  "id": 2419955,
  "bounds": {
    "minlat": 37.5064659,
    "minlon": 126.9445805,
    "maxlat": 37.5556438,
    "maxlon": 127.0175196
  },
  "tags": {
    "admin_level": "6",
    "boundary": "administrative",
    "name": "용산구",
    "name:en": "Yongsan-gu",
    "name:ja": "龍山区",
    "name:ko": "용산구",
    "name:ko-Hani": "龍山區",
    "name:ko-Latn": "Yongsan-gu",
    "name:zh": "龍山區",
    "name:zh-Hans": "龙山区",
    "name:zh-Hant": "龍山區",
    "ref": "03",
    "type": "boundary",
    "wikidata": "Q50429",
    "wikipedia": "ko:용산구"
  }
}

  ]
}
